{
  "type": "FeatureCollection",
  "features": [
    {
      "type": "Feature",
      "properties": {
        "norad_id": 34036,
        "name": "COSMOS 2251 DEB",
        "group": "cosmos-2251-debris",
        "lat": -54.52458301170594,
        "lon": -33.209342887574046,
        "alt_km": 585.5737920574657,
        "timestamp": "2025-12-25T16:53:15.057311+00:00",
        "meta_object_name": "COSMOS 2251 DEB",
        "meta_object_id": "1993-036HX",
        "meta_epoch": "2025-12-24T12:32:35.625120",
        "meta_mean_motion": 14.95894376,
        "meta_eccentricity": 0.00097561,
        "meta_inclination": 74.0206,
        "meta_ra_of_asc_node": 125.4677,
        "meta_arg_of_pericenter": 153.3579,
        "meta_mean_anomaly": 206.8109,
        "meta_ephemeris_type": 0,
        "meta_classification_type": "U",
        "meta_norad_cat_id": 34036,
        "meta_element_set_no": 999,
        "meta_rev_at_epoch": 88746,
        "meta_bstar": 0.0042989752,
        "meta_mean_motion_dot": 0.00048446,
        "meta_mean_motion_ddot": 0,
        "tle_line1": "1 34036U 93036HX  25358.52263455  .00048446  00000+0  42990-2 0  9993",
        "tle_line2": "2 34036  74.0206 125.4677 0009756 153.3579 206.8109 14.95894376887464"
      },
      "geometry": {
        "type": "Point",
        "coordinates": [
          -33.209342887574046,
          -54.52458301170594
        ]
      }
    },
    {
      "type": "Feature",
      "properties": {
        "norad_id": 34037,
        "name": "COSMOS 2251 DEB",
        "group": "cosmos-2251-debris",
        "lat": -17.135765094157016,
        "lon": 21.656795553308807,
        "alt_km": 780.7222840704289,
        "timestamp": "2025-12-25T16:53:15.057321+00:00",
        "meta_object_name": "COSMOS 2251 DEB",
        "meta_object_id": "1993-036HY",
        "meta_epoch": "2025-12-25T05:15:21.094560",
        "meta_mean_motion": 14.34695505,
        "meta_eccentricity": 0.00518159,
        "meta_inclination": 74.0509,
        "meta_ra_of_asc_node": 27.6019,
        "meta_arg_of_pericenter": 73.7245,
        "meta_mean_anomaly": 286.9598,
        "meta_ephemeris_type": 0,
        "meta_classification_type": "U",
        "meta_norad_cat_id": 34037,
        "meta_element_set_no": 999,
        "meta_rev_at_epoch": 87896,
        "meta_bstar": 0.00042369605,
        "meta_mean_motion_dot": 1.192e-05,
        "meta_mean_motion_ddot": 0,
        "tle_line1": "1 34037U 93036HY  25359.21899415  .00001192  00000+0  42370-3 0  9992",
        "tle_line2": "2 34037  74.0509  27.6019 0051815  73.7245 286.9598 14.34695505878964"
      },
      "geometry": {
        "type": "Point",
        "coordinates": [
          21.656795553308807,
          -17.135765094157016
        ]
      }
    },
    {
      "type": "Feature",
      "properties": {
        "norad_id": 34040,
        "name": "COSMOS 2251 DEB",
        "group": "cosmos-2251-debris",
        "lat": 22.39157531701308,
        "lon": 51.2506895388102,
        "alt_km": 779.2924394960983,
        "timestamp": "2025-12-25T16:53:15.057331+00:00",
        "meta_object_name": "COSMOS 2251 DEB",
        "meta_object_id": "1993-036JB",
        "meta_epoch": "2025-12-24T21:28:53.823360",
        "meta_mean_motion": 13.68395291,
        "meta_eccentricity": 0.0343443,
        "meta_inclination": 73.9555,
        "meta_ra_of_asc_node": 45.7775,
        "meta_arg_of_pericenter": 356.6901,
        "meta_mean_anomaly": 3.194,
        "meta_ephemeris_type": 0,
        "meta_classification_type": "U",
        "meta_norad_cat_id": 34040,
        "meta_element_set_no": 999,
        "meta_rev_at_epoch": 83766,
        "meta_bstar": 0.00078238,
        "meta_mean_motion_dot": 9.87e-06,
        "meta_mean_motion_ddot": 0,
        "tle_line1": "1 34040U 93036JB  25358.89506740  .00000987  00000+0  78238-3 0  9998",
        "tle_line2": "2 34040  73.9555  45.7775 0343443 356.6901   3.1940 13.68395291837667"
      },
      "geometry": {
        "type": "Point",
        "coordinates": [
          51.2506895388102,
          22.39157531701308
        ]
      }
    },
    {
      "type": "Feature",
      "properties": {
        "norad_id": 34045,
        "name": "COSMOS 2251 DEB",
        "group": "cosmos-2251-debris",
        "lat": -1.0182058125272466,
        "lon": -73.18001733722242,
        "alt_km": 762.3240863705614,
        "timestamp": "2025-12-25T16:53:15.057341+00:00",
        "meta_object_name": "COSMOS 2251 DEB",
        "meta_object_id": "1993-036JG",
        "meta_epoch": "2025-12-25T05:30:14.156928",
        "meta_mean_motion": 14.34075743,
        "meta_eccentricity": 0.00261828,
        "meta_inclination": 74.0396,
        "meta_ra_of_asc_node": 287.9789,
        "meta_arg_of_pericenter": 8.1006,
        "meta_mean_anomaly": 63.2427,
        "meta_ephemeris_type": 0,
        "meta_classification_type": "U",
        "meta_norad_cat_id": 34045,
        "meta_element_set_no": 999,
        "meta_rev_at_epoch": 88212,
        "meta_bstar": 0.00010613818,
        "meta_mean_motion_dot": 2.72e-06,
        "meta_mean_motion_ddot": 0,
        "tle_line1": "1 34045U 93036JG  25359.22933052  .00000272  00000+0  10614-3 0  9992",
        "tle_line2": "2 34045  74.0396 287.9789 0026182   8.1006  63.2427 14.34075743882124"
      },
      "geometry": {
        "type": "Point",
        "coordinates": [
          -73.18001733722242,
          -1.0182058125272466
        ]
      }
    },
    {
      "type": "Feature",
      "properties": {
        "norad_id": 34046,
        "name": "COSMOS 2251 DEB",
        "group": "cosmos-2251-debris",
        "lat": -27.897242989092945,
        "lon": 174.9797956979866,
        "alt_km": 784.5820699558326,
        "timestamp": "2025-12-25T16:53:15.057352+00:00",
        "meta_object_name": "COSMOS 2251 DEB",
        "meta_object_id": "1993-036JH",
        "meta_epoch": "2025-12-24T23:29:04.134912",
        "meta_mean_motion": 14.46571468,
        "meta_eccentricity": 0.00745437,
        "meta_inclination": 74.0399,
        "meta_ra_of_asc_node": 347.619,
        "meta_arg_of_pericenter": 67.423,
        "meta_mean_anomaly": 326.3927,
        "meta_ephemeris_type": 0,
        "meta_classification_type": "U",
        "meta_norad_cat_id": 34046,
        "meta_element_set_no": 999,
        "meta_rev_at_epoch": 88003,
        "meta_bstar": 0.0013905067,
        "meta_mean_motion_dot": 5.165e-05,
        "meta_mean_motion_ddot": 0,
        "tle_line1": "1 34046U 93036JH  25358.97852008  .00005165  00000+0  13905-2 0  9996",
        "tle_line2": "2 34046  74.0399 347.6190 0074543  67.4230 326.3927 14.46571468880033"
      },
      "geometry": {
        "type": "Point",
        "coordinates": [
          174.9797956979866,
          -27.897242989092945
        ]
      }
    },
    {
      "type": "Feature",
      "properties": {
        "norad_id": 34050,
        "name": "COSMOS 2251 DEB",
        "group": "cosmos-2251-debris",
        "lat": -69.34865664279349,
        "lon": -142.99845068694847,
        "alt_km": 1051.5702596227047,
        "timestamp": "2025-12-25T16:53:15.057362+00:00",
        "meta_object_name": "COSMOS 2251 DEB",
        "meta_object_id": "1993-036JM",
        "meta_epoch": "2025-12-24T18:11:16.265760",
        "meta_mean_motion": 13.96208292,
        "meta_eccentricity": 0.0214816,
        "meta_inclination": 74.0883,
        "meta_ra_of_asc_node": 349.436,
        "meta_arg_of_pericenter": 50.6849,
        "meta_mean_anomaly": 134.9519,
        "meta_ephemeris_type": 0,
        "meta_classification_type": "U",
        "meta_norad_cat_id": 34050,
        "meta_element_set_no": 999,
        "meta_rev_at_epoch": 85599,
        "meta_bstar": 0.00075542186,
        "meta_mean_motion_dot": 1.239e-05,
        "meta_mean_motion_ddot": 0,
        "tle_line1": "1 34050U 93036JM  25358.75782715  .00001239  00000+0  75542-3 0  9998",
        "tle_line2": "2 34050  74.0883 349.4360 0214816  50.6849 134.9519 13.96208292855997"
      },
      "geometry": {
        "type": "Point",
        "coordinates": [
          -142.99845068694847,
          -69.34865664279349
        ]
      }
    },
    {
      "type": "Feature",
      "properties": {
        "norad_id": 34053,
        "name": "COSMOS 2251 DEB",
        "group": "cosmos-2251-debris",
        "lat": -16.79338454440237,
        "lon": 46.29996799698132,
        "alt_km": 1390.018709713052,
        "timestamp": "2025-12-25T16:53:15.057382+00:00",
        "meta_object_name": "COSMOS 2251 DEB",
        "meta_object_id": "1993-036JQ",
        "meta_epoch": "2025-12-24T23:53:46.041792",
        "meta_mean_motion": 13.49179154,
        "meta_eccentricity": 0.04228661,
        "meta_inclination": 73.8428,
        "meta_ra_of_asc_node": 222.4216,
        "meta_arg_of_pericenter": 8.9589,
        "meta_mean_anomaly": 351.876,
        "meta_ephemeris_type": 0,
        "meta_classification_type": "U",
        "meta_norad_cat_id": 34053,
        "meta_element_set_no": 999,
        "meta_rev_at_epoch": 82849,
        "meta_bstar": 0.00056348352,
        "meta_mean_motion_dot": 5.93e-06,
        "meta_mean_motion_ddot": 0,
        "tle_line1": "1 34053U 93036JQ  25358.99567178  .00000593  00000+0  56348-3 0  9996",
        "tle_line2": "2 34053  73.8428 222.4216 0422866   8.9589 351.8760 13.49179154828490"
      },
      "geometry": {
        "type": "Point",
        "coordinates": [
          46.29996799698132,
          -16.79338454440237
        ]
      }
    }
  ]
}